OBJECT_NAME,OBJECT_ID,EPOCH,MEAN_MOTION,ECCENTRICITY,INCLINATION,RA_OF_ASC_NODE,ARG_OF_PERICENTER,MEAN_ANOMALY,EPHEMERIS_TYPE,CLASSIFICATION_TYPE,NORAD_CAT_ID,ELEMENT_SET_NO,REV_AT_EPOCH,BSTAR,MEAN_MOTION_DOT,MEAN_MOTION_DDOT
SL-14 R/B,1990-018B,2026-06-04T01:11:39.862752,14.82207440,.0016595,82.5200,142.3872,162.6489,197.5296,0,U,20511,999,93537,.52658E-4,.444E-5,0
HST,1990-037B,2026-06-02T08:13:52.267584,15.30586461,.00017007,28.4711,182.0162,354.7953,5.2625,0,U,20580,999,78629,.18209235E-3,.5773E-4,0
SL-16 R/B,1990-046B,2026-06-04T00:16:46.374240,14.15019180,.0014276,70.9974,116.6190,181.8322,178.2751,0,U,20625,999,86060,.8804E-4,.123E-5,0
COSMOS 2084,1990-055A,2026-06-04T01:09:10.249056,15.06060518,.000562,62.7909,40.9352,255.1473,104.9006,0,U,20663,999,94932,.18031E-3,.2445E-4,0
SL-8 R/B,1990-078B,2026-06-04T01:13:22.808352,14.91833770,.0353388,82.9008,173.5078,82.6481,281.4750,0,U,20775,999,82216,.47E-3,.16676E-3,0
SL-8 R/B,1991-006B,2026-06-03T23:46:48.175968,13.77505003,.0023027,82.9415,105.8504,149.9397,281.1793,0,U,21088,999,77595,.28375E-4,.44E-6,0
OKEAN-3,1991-039A,2026-06-03T15:27:58.280256,15.05266631,.0014724,82.5174,253.5133,43.5026,316.7359,0,U,21397,999,87796,.18089E-3,.2618E-4,0
COSMOS 2151,1991-042A,2026-06-04T02:55:32.311200,15.00400997,.0013556,82.4964,0.2907,123.2288,237.0238,0,U,21422,999,87615,.15349E-3,.1958E-4,0
SL-14 R/B,1991-042B,2026-06-04T01:17:07.095840,14.81893799,.0015977,82.4916,139.2120,321.7540,38.2540,0,U,21423,999,86586,.55391E-4,.462E-5,0
ERS-1,1991-050A,2026-06-04T00:40:07.738176,14.39508652,.0030917,98.7800,175.4041,307.4831,52.3545,0,U,21574,999,82815,.98446E-4,.262E-5,0
ARIANE 40 R/B,1991-050F,2026-06-04T01:57:57.191616,14.42949199,.0003633,98.1881,204.0084,151.1454,208.9939,0,U,21610,999,83145,.12387E-3,.373E-5,0
INTERCOSMOS 25,1991-086A,2026-06-03T07:53:19.226400,12.12177492,.14845825,82.6052,258.1959,292.3131,52.7351,0,U,21819,999,50706,.20370766E-3,.1025E-4,0
SL-8 R/B,1992-008B,2026-06-03T14:39:33.613344,13.75973616,.00332399,82.9273,203.8814,253.8718,218.1220,0,U,21876,999,72123,.30768387E-4,.45E-6,0
SL-8 R/B,1992-020B,2026-06-03T07:37:09.801120,13.75547502,.00304125,82.9301,90.1587,60.0314,56.2183,0,U,21938,999,71290,.48506018E-4,.62E-6,0
USA 81,1992-023A,2026-06-03T07:17:09.451104,14.32394120,.0002699,85.0074,82.0194,97.3286,262.8213,0,U,21949,999,10704,.69610406E-4,.208E-5,0
COSMOS 2219,1992-076A,2026-06-03T12:55:03.775296,14.14096056,.00159629,71.0584,198.6057,66.4966,293.7832,0,U,22219,999,73051,-.64869385E-4,-.171E-5,0
SL-16 R/B,1992-076B,2026-06-04T01:11:28.120992,14.16872825,.0014276,71.0012,6.4572,316.0539,155.9168,0,U,22220,999,73406,-.1428E-4,-.77E-6,0
COSMOS 2221,1992-080A,2026-06-03T15:10:52.749408,14.96497704,.0012572,82.5039,196.7504,262.5613,97.4181,0,U,22236,999,79364,.1337E-3,.1546E-4,0
SL-16 R/B,1992-093B,2026-06-03T12:46:55.190208,14.15464578,.00046965,71.0204,184.0562,205.6228,154.4663,0,U,22285,999,72530,.75072994E-4,.99E-6,0
COSMOS 2228,1992-094A,2026-06-04T03:00:19.771776,14.97536961,.0018214,82.5166,154.5542,16.8498,343.3326,0,U,22286,999,78899,.19803E-3,.2343E-4,0
SL-16 R/B,1993-016B,2026-06-04T00:08:31.848288,14.15308608,.0011048,71.0083,33.8933,202.9503,157.1127,0,U,22566,999,71438,-.30168E-4,-.106E-5,0
COSMOS 2242,1993-024A,2026-06-04T03:29:39.706080,14.96864609,.0016617,82.5183,184.0195,20.4483,339.7401,0,U,22626,999,79332,.16629E-3,.1937E-4,0
SL-16 R/B,1993-059B,2026-06-04T01:54:40.063104,14.17243348,.001488,70.9886,188.9455,76.8485,283.4298,0,U,22803,999,69177,-.18236E-4,-.85E-6,0
ARIANE 40 R/B,1993-061H,2026-06-04T01:51:51.418080,14.32902182,.0011286,98.4820,222.2065,34.5702,325.6215,0,U,22830,999,70647,.11204E-3,.263E-5,0
COSMOS 2278,1994-023A,2026-06-03T14:20:15.518112,14.14389092,.00106479,71.0539,355.3603,258.3884,101.6044,0,U,23087,999,65695,.20947027E-3,.354E-5,0
SL-16 R/B,1994-023B,2026-06-03T14:31:30.121536,14.15018195,.00036145,70.9999,250.4545,202.8556,157.2406,0,U,23088,999,65824,.13615418E-4,-.21E-6,0
SL-16 R/B,1994-074B,2026-06-04T00:36:57.881088,14.79490506,.0005334,97.6996,182.2947,308.4024,107.1263,0,U,23343,999,70001,.68275E-4,.461E-5,0
SL-16 R/B,1994-077B,2026-06-04T01:09:00.633600,14.15575335,.0002438,70.9811,170.8056,336.2142,23.8867,0,U,23405,999,62845,-.10683E-3,-.257E-5,0
ARIANE 40+ R/B,1995-021B,2026-06-04T01:26:05.004096,14.39825818,.0005727,98.4413,225.3239,236.9098,187.3112,0,U,23561,999,63167,.10927E-3,.299E-5,0
SL-16 R/B,1995-058B,2026-06-03T23:43:19.017120,14.15506180,.0013189,71.0220,359.0713,338.2018,21.8542,0,U,23705,999,58006,-.10228E-3,-.248E-5,0
