{"fetched_at":"2026-06-04T18:13:41Z","count":1054,"tles":[{"name":"HST","line1":"1 20580U 90037B   26153.34296606  .00005773  00000+0  18209-3 0  9991","line2":"2 20580  28.4711 182.0162 0001700 354.7953   5.2625 15.30586461786295","category":"Other"},{"name":"SL-16 R/B","line1":"1 22566U 93016B   26155.00592417 -.00000106  00000+0 -30168-4 0  9997","line2":"2 22566  71.0083  33.8933 0011048 202.9503 157.1127 14.15308608714389","category":"Other"},{"name":"ARIANE 40 R/B","line1":"1 22830U 93061H   26155.07767845  .00000263  00000+0  11204-3 0  9998","line2":"2 22830  98.4820 222.2065 0011286  34.5702 325.6215 14.32902182706476","category":"Other"},{"name":"ARIANE 40+ R/B","line1":"1 23561U 95021B   26155.05978014  .00000299  00000+0  10927-3 0  9998","line2":"2 23561  98.4413 225.3239 0005727 236.9098 187.3112 14.39825818631677","category":"Other"},{"name":"SL-16 R/B","line1":"1 23343U 94074B   26155.02566992  .00000461  00000+0  68275-4 0  9999","line2":"2 23343  97.6996 182.2947 0005334 308.4024 107.1263 14.79490506700015","category":"Other"},{"name":"SL-16 R/B","line1":"1 23405U 94077B   26155.04792400 -.00000257  00000+0 -10683-3 0  9992","line2":"2 23405  70.9811 170.8056 0002438 336.2142  23.8867 14.15575335628455","category":"Other"},{"name":"SL-16 R/B","line1":"1 23705U 95058B   26154.98841455 -.00000248  00000+0 -10228-3 0  9997","line2":"2 23705  71.0220 359.0713 0013189 338.2018  21.8542 14.15506180580068","category":"Other"},{"name":"SL-8 R/B","line1":"1 21938U 92020B   26154.31747455  .00000062  00000+0  48506-4 0  9994","line2":"2 21938  82.9301  90.1587 0030412  60.0314  56.2183 13.75547502712905","category":"Other"},{"name":"OKEAN-3","line1":"1 21397U 91039A   26154.64442454  .00002618  00000+0  18089-3 0  9990","line2":"2 21397  82.5174 253.5133 0014724  43.5026 316.7359 15.05266631877967","category":"Other"},{"name":"SL-16 R/B","line1":"1 22285U 92093B   26154.53258322  .00000099  00000+0  75073-4 0  9993","line2":"2 22285  71.0204 184.0562 0004696 205.6228 154.4663 14.15464578725302","category":"Other"},{"name":"SL-8 R/B","line1":"1 20775U 90078B   26155.05095843  .00016676  00000+0  47000-3 0  9997","line2":"2 20775  82.9008 173.5078 0353388  82.6481 281.4750 14.91833770822169","category":"Other"},{"name":"COSMOS 2151","line1":"1 21422U 91042A   26155.12190175  .00001958  00000+0  15349-3 0  9999","line2":"2 21422  82.4964   0.2907 0013556 123.2288 237.0238 15.00400997876157","category":"Other"},{"name":"COSMOS 2228","line1":"1 22286U 92094A   26155.12522884  .00002343  00000+0  19803-3 0  9990","line2":"2 22286  82.5166 154.5542 0018214  16.8498 343.3326 14.97536961788994","category":"Other"},{"name":"USA 81","line1":"1 21949U 92023A   26154.30358161  .00000208  00000+0  69610-4 0  9991","line2":"2 21949  85.0074  82.0194 0002699  97.3286 262.8213 14.32394120107041","category":"Military"},{"name":"SL-14 R/B","line1":"1 21423U 91042B   26155.05355435  .00000462  00000+0  55391-4 0  9995","line2":"2 21423  82.4916 139.2120 0015977 321.7540  38.2540 14.81893799865867","category":"Other"},{"name":"SL-8 R/B","line1":"1 21088U 91006B   26154.99083537  .00000044  00000+0  28375-4 0  9993","line2":"2 21088  82.9415 105.8504 0023027 149.9397 281.1793 13.77505003775954","category":"Other"},{"name":"COSMOS 2219","line1":"1 22219U 92076A   26154.53823814 -.00000171  00000+0 -64869-4 0  9999","line2":"2 22219  71.0584 198.6057 0015962  66.4966 293.7832 14.14096056730515","category":"Other"},{"name":"COSMOS 2278","line1":"1 23087U 94023A   26154.59740183  .00000354  00000+0  20947-3 0  9999","line2":"2 23087  71.0539 355.3603 0010647 258.3884 101.6044 14.14389092656956","category":"Other"},{"name":"ERS-1","line1":"1 21574U 91050A   26155.02786734  .00000262  00000+0  98446-4 0  9994","line2":"2 21574  98.7800 175.4041 0030917 307.4831  52.3545 14.39508652828152","category":"Other"},{"name":"COSMOS 2242","line1":"1 22626U 93024A   26155.14559845  .00001937  00000+0  16629-3 0  9992","line2":"2 22626  82.5183 184.0195 0016617  20.4483 339.7401 14.96864609793321","category":"Other"},{"name":"SL-16 R/B","line1":"1 22220U 92076B   26155.04963103 -.00000077  00000+0 -14280-4 0  9991","line2":"2 22220  71.0012   6.4572 0014276 316.0539 155.9168 14.16872825734061","category":"Other"},{"name":"SL-16 R/B","line1":"1 23088U 94023B   26154.60520974 -.00000021  00000+0  13615-4 0  9993","line2":"2 23088  70.9999 250.4545 0003614 202.8556 157.2406 14.15018195658248","category":"Other"},{"name":"INTERCOSMOS 25","line1":"1 21819U 91086A   26154.32869475  .00001025  00000+0  20371-3 0  9990","line2":"2 21819  82.6052 258.1959 1484582 292.3131  52.7351 12.12177492507065","category":"Other"},{"name":"SL-16 R/B","line1":"1 22803U 93059B   26155.07963036 -.00000085  00000+0 -18236-4 0  9992","line2":"2 22803  70.9886 188.9455 0014880  76.8485 283.4298 14.17243348691777","category":"Other"},{"name":"ARIANE 40 R/B","line1":"1 21610U 91050F   26155.08191194  .00000373  00000+0  12387-3 0  9993","line2":"2 21610  98.1881 204.0084 0003633 151.1454 208.9939 14.42949199831454","category":"Other"},{"name":"COSMOS 2221","line1":"1 22236U 92080A   26154.63255497  .00001546  00000+0  13370-3 0  9995","line2":"2 22236  82.5039 196.7504 0012572 262.5613  97.4181 14.96497704793648","category":"Other"},{"name":"SL-8 R/B","line1":"1 21876U 92008B   26154.61080571  .00000045  00000+0  30768-4 0  9995","line2":"2 21876  82.9273 203.8814 0033239 253.8718 218.1220 13.75973616721236","category":"Other"},{"name":"SL-14 R/B","line1":"1 20511U 90018B   26155.04976693  .00000444  00000+0  52658-4 0  9991","line2":"2 20511  82.5200 142.3872 0016595 162.6489 197.5296 14.82207440935375","category":"Other"},{"name":"SL-16 R/B","line1":"1 20625U 90046B   26155.01164785  .00000123  00000+0  88040-4 0  9994","line2":"2 20625  70.9974 116.6190 0014276 181.8322 178.2751 14.15019180860603","category":"Other"},{"name":"COSMOS 2084","line1":"1 20663U 90055A   26155.04803529  .00002445  00000+0  18031-3 0  9996","line2":"2 20663  62.7909  40.9352 0005620 255.1473 104.9006 15.06060518949324","category":"Other"}]}